{
  "norad_id": 60500,
  "name": "NUSAT-49 (KLARA DAN VON NEUMANN)",
  "history": [
    {
      "epoch": "2026-03-28T19:39:23.912064Z",
      "apogee_km": 479.392573862493,
      "perigee_km": 475.8654193725524,
      "latitude_deg": 5.7816787488593984e-05,
      "longitude_deg": 48.577453446124835,
      "height_km": 482.49561205324,
      "semi_major_axis_km": 6855.765996617522,
      "eccentricity": 0.00025724,
      "inclination_deg": 97.3803,
      "raan_deg": 169.6611,
      "arg_perigee_deg": 182.1863,
      "mean_anomaly_deg": 177.9367,
      "mean_motion_rev_day": 15.29391892
    },
    {
      "epoch": "2026-03-29T05:04:41.430432Z",
      "apogee_km": 479.36616137783494,
      "perigee_km": 475.8052989917778,
      "latitude_deg": -1.2274255263482215e-05,
      "longitude_deg": -92.74295929479457,
      "height_km": 482.47022125385746,
      "semi_major_axis_km": 6855.722730184806,
      "eccentricity": 0.0002597,
      "inclination_deg": 97.3803,
      "raan_deg": 170.0506,
      "arg_perigee_deg": 180.8773,
      "mean_anomaly_deg": 179.2463,
      "mean_motion_rev_day": 15.2940637
    },
    {
      "epoch": "2026-03-30T04:37:54.215040Z",
      "apogee_km": 479.34624453750894,
      "perigee_km": 475.6688767951664,
      "latitude_deg": 4.51634910669918e-06,
      "longitude_deg": -86.0395400131881,
      "height_km": 482.44955144969913,
      "semi_major_axis_km": 6855.644560666337,
      "eccentricity": 0.0002682,
      "inclination_deg": 97.3802,
      "raan_deg": 171.0246,
      "arg_perigee_deg": 178.2766,
      "mean_anomaly_deg": 181.8484,
      "mean_motion_rev_day": 15.29432528
    },
    {
      "epoch": "2026-03-30T18:45:49.160736Z",
      "apogee_km": 479.3090460049916,
      "perigee_km": 475.60675053612886,
      "latitude_deg": 2.114791554264761e-06,
      "longitude_deg": 61.9855428606933,
      "height_km": 482.41172138390505,
      "semi_major_axis_km": 6855.5948982705595,
      "eccentricity": 0.00027002,
      "inclination_deg": 97.3801,
      "raan_deg": 171.609,
      "arg_perigee_deg": 177.7303,
      "mean_anomaly_deg": 182.395,
      "mean_motion_rev_day": 15.29449147
    },
    {
      "epoch": "2026-03-31T16:44:46.903776Z",
      "apogee_km": 479.30649449476823,
      "perigee_km": 475.4687718051309,
      "latitude_deg": -6.380487632754035e-05,
      "longitude_deg": 92.25115891112475,
      "height_km": 482.402661735056,
      "semi_major_axis_km": 6855.524633149949,
      "eccentricity": 0.0002799,
      "inclination_deg": 97.3801,
      "raan_deg": 172.518,
      "arg_perigee_deg": 174.8335,
      "mean_anomaly_deg": 185.2934,
      "mean_motion_rev_day": 15.29472661
    },
    {
      "epoch": "2026-04-01T11:35:18.263328Z",
      "apogee_km": 479.311476932382,
      "perigee_km": 475.3627238505569,
      "latitude_deg": 8.032164668598888e-06,
      "longitude_deg": 169.6260706136687,
      "height_km": 482.3940893256926,
      "semi_major_axis_km": 6855.474100391469,
      "eccentricity": 0.000288,
      "inclination_deg": 97.3801,
      "raan_deg": 173.2974,
      "arg_perigee_deg": 171.6127,
      "mean_anomaly_deg": 188.5162,
      "mean_motion_rev_day": 15.29489572
    },
    {
      "epoch": "2026-04-02T15:51:03.641184Z",
      "apogee_km": 479.2641581133257,
      "perigee_km": 475.2015288366865,
      "latitude_deg": 5.595452089335383e-06,
      "longitude_deg": 105.69519368445944,
      "height_km": 482.32511877220753,
      "semi_major_axis_km": 6855.369843475006,
      "eccentricity": 0.00029631,
      "inclination_deg": 97.3799,
      "raan_deg": 174.4663,
      "arg_perigee_deg": 168.2528,
      "mean_anomaly_deg": 191.8782,
      "mean_motion_rev_day": 15.29524463
    },
    {
      "epoch": "2026-04-03T18:32:33.870336Z",
      "apogee_km": 479.18160721838467,
      "perigee_km": 475.01636583297295,
      "latitude_deg": 5.083043656368518e-05,
      "longitude_deg": 65.32704282444219,
      "height_km": 482.2178534090875,
      "semi_major_axis_km": 6855.2359865256785,
      "eccentricity": 0.0003038,
      "inclination_deg": 97.3796,
      "raan_deg": 175.5703,
      "arg_perigee_deg": 165.4192,
      "mean_anomaly_deg": 194.7137,
      "mean_motion_rev_day": 15.29569262
    },
    {
      "epoch": "2026-04-04T16:31:25.022784Z",
      "apogee_km": 479.1328597323236,
      "perigee_km": 474.87581696121015,
      "latitude_deg": 4.951341804239217e-05,
      "longitude_deg": 95.6202846355396,
      "height_km": 482.143740687762,
      "semi_major_axis_km": 6855.141338346766,
      "eccentricity": 0.0003105,
      "inclination_deg": 97.3793,
      "raan_deg": 176.4794,
      "arg_perigee_deg": 163.0677,
      "mean_anomaly_deg": 197.0668,
      "mean_motion_rev_day": 15.2960094
    },
    {
      "epoch": "2026-04-05T11:21:50.628960Z",
      "apogee_km": 479.1204226647542,
      "perigee_km": 474.7603192537299,
      "latitude_deg": 2.8248781329917586e-05,
      "longitude_deg": 173.0192442004992,
      "height_km": 482.1021932960682,
      "semi_major_axis_km": 6855.077370959242,
      "eccentricity": 0.00031802,
      "inclination_deg": 97.379,
      "raan_deg": 177.2588,
      "arg_perigee_deg": 160.805,
      "mean_anomaly_deg": 199.3311,
      "mean_motion_rev_day": 15.2962235
    },
    {
      "epoch": "2026-04-05T17:38:39.010272Z",
      "apogee_km": 479.1094288349641,
      "perigee_km": 474.737271343678,
      "latitude_deg": -1.6325252233078927e-05,
      "longitude_deg": 78.81954588688728,
      "height_km": 482.0864104879151,
      "semi_major_axis_km": 6855.060350089321,
      "eccentricity": 0.0003189,
      "inclination_deg": 97.3788,
      "raan_deg": 177.5186,
      "arg_perigee_deg": 160.4542,
      "mean_anomaly_deg": 199.6821,
      "mean_motion_rev_day": 15.29628047
    },
    {
      "epoch": "2026-04-06T04:38:03.436512Z",
      "apogee_km": 479.1015118227815,
      "perigee_km": 474.6856382269607,
      "latitude_deg": 6.562034883572989e-05,
      "longitude_deg": -86.0290897444803,
      "height_km": 482.06416868140946,
      "semi_major_axis_km": 6855.030575024871,
      "eccentricity": 0.00032209,
      "inclination_deg": 97.3786,
      "raan_deg": 177.9731,
      "arg_perigee_deg": 159.4717,
      "mean_anomaly_deg": 200.6654,
      "mean_motion_rev_day": 15.29638013
    },
    {
      "epoch": "2026-04-07T04:11:03.441696Z",
      "apogee_km": 479.0738339861073,
      "perigee_km": 474.57231880314066,
      "latitude_deg": -2.038568418749545e-05,
      "longitude_deg": -79.27196697431513,
      "height_km": 481.9994543660828,
      "semi_major_axis_km": 6854.960076394624,
      "eccentricity": 0.00032834,
      "inclination_deg": 97.3785,
      "raan_deg": 178.9474,
      "arg_perigee_deg": 157.1225,
      "mean_anomaly_deg": 203.0162,
      "mean_motion_rev_day": 15.2966161
    },
    {
      "epoch": "2026-04-07T18:18:50.901696Z",
      "apogee_km": 479.08296083397,
      "perigee_km": 474.50249678917953,
      "latitude_deg": -4.030194271001551e-05,
      "longitude_deg": 68.78449154445718,
      "height_km": 481.97458378858175,
      "semi_major_axis_km": 6854.929728811575,
      "eccentricity": 0.0003341,
      "inclination_deg": 97.3784,
      "raan_deg": 179.5319,
      "arg_perigee_deg": 155.2209,
      "mean_anomaly_deg": 204.9192,
      "mean_motion_rev_day": 15.29671768
    },
    {
      "epoch": "2026-04-08T11:35:01.662432Z",
      "apogee_km": 479.0755811820436,
      "perigee_km": 474.42426620884,
      "latitude_deg": 1.3277583517020151e-05,
      "longitude_deg": 169.74480649917305,
      "height_km": 481.9230901733666,
      "semi_major_axis_km": 6854.8869236954415,
      "eccentricity": 0.00033927,
      "inclination_deg": 97.3783,
      "raan_deg": 180.2463,
      "arg_perigee_deg": 152.9315,
      "mean_anomaly_deg": 207.2103,
      "mean_motion_rev_day": 15.29686096
    },
    {
      "epoch": "2026-04-09T18:58:58.115424Z",
      "apogee_km": 479.06741890531157,
      "perigee_km": 474.29920589600624,
      "latitude_deg": 9.362309736027463e-06,
      "longitude_deg": 58.76897059144212,
      "height_km": 481.84415238990977,
      "semi_major_axis_km": 6854.820312400659,
      "eccentricity": 0.0003478,
      "inclination_deg": 97.3783,
      "raan_deg": 181.5452,
      "arg_perigee_deg": 149.7233,
      "mean_anomaly_deg": 210.4209,
      "mean_motion_rev_day": 15.29708393
    },
    {
      "epoch": "2026-04-10T04:24:08.678592Z",
      "apogee_km": 479.05650375545883,
      "perigee_km": 474.25211762162326,
      "latitude_deg": 9.033220049262474e-06,
      "longitude_deg": -82.52229287388775,
      "height_km": 481.80389376491297,
      "semi_major_axis_km": 6854.791310688541,
      "eccentricity": 0.00035044,
      "inclination_deg": 97.3782,
      "raan_deg": 181.9348,
      "arg_perigee_deg": 148.4806,
      "mean_anomaly_deg": 211.6645,
      "mean_motion_rev_day": 15.29718101
    },
    {
      "epoch": "2026-04-11T11:48:02.830752Z",
      "apogee_km": 479.061229976669,
      "perigee_km": 474.1258239972385,
      "latitude_deg": -4.13125789349046e-06,
      "longitude_deg": 166.5115866421203,
      "height_km": 481.73116416490956,
      "semi_major_axis_km": 6854.730526986954,
      "eccentricity": 0.00036,
      "inclination_deg": 97.3784,
      "raan_deg": 183.2338,
      "arg_perigee_deg": 145.6013,
      "mean_anomaly_deg": 214.5461,
      "mean_motion_rev_day": 15.29738448
    },
    {
      "epoch": "2026-04-13T04:37:05.075904Z",
      "apogee_km": 479.0758385583458,
      "perigee_km": 473.9826844327299,
      "latitude_deg": -5.786067872416512e-05,
      "longitude_deg": -85.73536897456451,
      "height_km": 481.6204749720967,
      "semi_major_axis_km": 6854.666261495538,
      "eccentricity": 0.00037151,
      "inclination_deg": 97.3787,
      "raan_deg": 184.9225,
      "arg_perigee_deg": 141.401,
      "mean_anomaly_deg": 218.7496,
      "mean_motion_rev_day": 15.29759961
    }
  ]
}